STARLINK-37019          
1 68273U 26055M   26090.25002315 -.01254802  00000+0 -45184-2 0  9996
2 68273  53.1573 229.2629 0000765  67.8474 205.2284 15.90349241  3103
STARLINK-37129          
1 68274U 26055N   26090.25002315 -.01258326  00000+0 -45199-2 0  9998
2 68274  53.1570 229.2545 0000814  72.2582 204.9719 15.90403504  3105
STARLINK-37123          
1 68275U 26055P   26090.25002315 -.01261751  00000+0 -45152-2 0  9994
2 68275  53.1573 229.2472 0000822  65.7760 215.0893 15.90482864  3104
STARLINK-37125          
1 68276U 26055Q   26090.25002315 -.01267023  00000+0 -45297-2 0  9993
2 68276  53.1570 229.2374 0000739  67.6471 217.9686 15.90512530  3105
STARLINK-36989          
1 68277U 26055R   26090.25002315 -.01285558  00000+0 -45632-2 0  9990
2 68277  53.1571 229.2113 0000677  70.8423 227.4253 15.90687659  3103
STARLINK-36982          
1 68278U 26055S   26090.25002315 -.01282347  00000+0 -45666-2 0  9991
2 68278  53.1572 229.2202 0000664  71.7617 222.5066 15.90618891  3105
STARLINK-36934          
1 68279U 26055T   26090.25002315 -.01280536  00000+0 -45745-2 0  9998
2 68279  53.1570 229.2283 0000595  74.8094 215.4287 15.90555021  3100
STARLINK-37070          
1 68280U 26055U   26090.25002315 -.01461084  60250-3 -46042-2 0  9997
2 68280  53.1574 229.2016 0000853  71.8482 231.0613 15.90737127  3101
STARLINK-37134          
1 68281U 26055V   26090.25002315 -.01465712  60671-3 -45897-2 0  9994
2 68281  53.1569 229.1836 0000614  66.8797 244.6036 15.90861722  3101
STARLINK-37160          
1 68282U 26055W   26090.25002315 -.01463601  60471-3 -45995-2 0  9997
2 68282  53.1572 229.1931 0000834  68.6635 238.6788 15.90791263  3106
STARLINK-37124          
1 68283U 26055X   26090.25002315 -.01464266  60610-3 -45658-2 0  9997
2 68283  53.1572 229.1764 0000714  69.0809 246.1657 15.90944028  3104
STARLINK-37159          
1 68284U 26055Y   26090.25002315 -.01483394  62109-3 -46088-2 0  9994
2 68284  53.1573 229.1672 0000718  73.9725 245.6406 15.91017498  3108
STARLINK-36725          
1 68285U 26055Z   26090.25002315 -.01512297  64401-3 -46756-2 0  9999
2 68285  53.1568 229.1588 0000677  68.3255 255.0149 15.91117740  3109
STARLINK-36998          
1 68286U 26055AA  26090.25002315 -.01697834  79771-3 -52082-2 0  9996
2 68286  53.1578 229.1423 0000668  65.7567 266.3659 15.91300034  3107
STARLINK-37165          
1 68287U 26055AB  26090.25002315 -.01741192  83615-3 -53250-2 0  9994
2 68287  53.1574 229.1320 0000695  75.1588 261.1421 15.91365651  3104
STARLINK-37016          
1 68288U 26055AC  26090.25002315 -.01590866  70729-3 -48966-2 0  9995
2 68288  53.1571 229.1506 0000718  65.0731 262.4607 15.91217344  3107
