[{"OBJECT_NAME":"STARLINK-37019","OBJECT_ID":"2026-055M","EPOCH":"2026-03-31T06:00:02.000160","MEAN_MOTION":15.90349241,"ECCENTRICITY":7.657e-5,"INCLINATION":53.1573,"RA_OF_ASC_NODE":229.2629,"ARG_OF_PERICENTER":67.8474,"MEAN_ANOMALY":205.2284,"EPHEMERIS_TYPE":0,"CLASSIFICATION_TYPE":"U","NORAD_CAT_ID":68273,"ELEMENT_SET_NO":999,"REV_AT_EPOCH":310,"BSTAR":-0.0045183977,"MEAN_MOTION_DOT":-0.01254802,"MEAN_MOTION_DDOT":0},{"OBJECT_NAME":"STARLINK-37129","OBJECT_ID":"2026-055N","EPOCH":"2026-03-31T06:00:02.000160","MEAN_MOTION":15.90403504,"ECCENTRICITY":8.142e-5,"INCLINATION":53.157,"RA_OF_ASC_NODE":229.2545,"ARG_OF_PERICENTER":72.2582,"MEAN_ANOMALY":204.9719,"EPHEMERIS_TYPE":0,"CLASSIFICATION_TYPE":"U","NORAD_CAT_ID":68274,"ELEMENT_SET_NO":999,"REV_AT_EPOCH":310,"BSTAR":-0.0045198921,"MEAN_MOTION_DOT":-0.01258326,"MEAN_MOTION_DDOT":0},{"OBJECT_NAME":"STARLINK-37123","OBJECT_ID":"2026-055P","EPOCH":"2026-03-31T06:00:02.000160","MEAN_MOTION":15.90482864,"ECCENTRICITY":8.221e-5,"INCLINATION":53.1573,"RA_OF_ASC_NODE":229.2472,"ARG_OF_PERICENTER":65.776,"MEAN_ANOMALY":215.0893,"EPHEMERIS_TYPE":0,"CLASSIFICATION_TYPE":"U","NORAD_CAT_ID":68275,"ELEMENT_SET_NO":999,"REV_AT_EPOCH":310,"BSTAR":-0.0045151849,"MEAN_MOTION_DOT":-0.01261751,"MEAN_MOTION_DDOT":0},{"OBJECT_NAME":"STARLINK-37125","OBJECT_ID":"2026-055Q","EPOCH":"2026-03-31T06:00:02.000160","MEAN_MOTION":15.9051253,"ECCENTRICITY":7.392e-5,"INCLINATION":53.157,"RA_OF_ASC_NODE":229.2374,"ARG_OF_PERICENTER":67.6471,"MEAN_ANOMALY":217.9686,"EPHEMERIS_TYPE":0,"CLASSIFICATION_TYPE":"U","NORAD_CAT_ID":68276,"ELEMENT_SET_NO":999,"REV_AT_EPOCH":310,"BSTAR":-0.0045297016,"MEAN_MOTION_DOT":-0.01267023,"MEAN_MOTION_DDOT":0},{"OBJECT_NAME":"STARLINK-36989","OBJECT_ID":"2026-055R","EPOCH":"2026-03-31T06:00:02.000160","MEAN_MOTION":15.90687659,"ECCENTRICITY":6.778e-5,"INCLINATION":53.1571,"RA_OF_ASC_NODE":229.2113,"ARG_OF_PERICENTER":70.8423,"MEAN_ANOMALY":227.4253,"EPHEMERIS_TYPE":0,"CLASSIFICATION_TYPE":"U","NORAD_CAT_ID":68277,"ELEMENT_SET_NO":999,"REV_AT_EPOCH":310,"BSTAR":-0.0045631555,"MEAN_MOTION_DOT":-0.01285558,"MEAN_MOTION_DDOT":0},{"OBJECT_NAME":"STARLINK-36982","OBJECT_ID":"2026-055S","EPOCH":"2026-03-31T06:00:02.000160","MEAN_MOTION":15.90618891,"ECCENTRICITY":6.641e-5,"INCLINATION":53.1572,"RA_OF_ASC_NODE":229.2202,"ARG_OF_PERICENTER":71.7617,"MEAN_ANOMALY":222.5066,"EPHEMERIS_TYPE":0,"CLASSIFICATION_TYPE":"U","NORAD_CAT_ID":68278,"ELEMENT_SET_NO":999,"REV_AT_EPOCH":310,"BSTAR":-0.0045665574,"MEAN_MOTION_DOT":-0.01282347,"MEAN_MOTION_DDOT":0},{"OBJECT_NAME":"STARLINK-36934","OBJECT_ID":"2026-055T","EPOCH":"2026-03-31T06:00:02.000160","MEAN_MOTION":15.90555021,"ECCENTRICITY":5.957e-5,"INCLINATION":53.157,"RA_OF_ASC_NODE":229.2283,"ARG_OF_PERICENTER":74.8094,"MEAN_ANOMALY":215.4287,"EPHEMERIS_TYPE":0,"CLASSIFICATION_TYPE":"U","NORAD_CAT_ID":68279,"ELEMENT_SET_NO":999,"REV_AT_EPOCH":310,"BSTAR":-0.0045745445,"MEAN_MOTION_DOT":-0.01280536,"MEAN_MOTION_DDOT":0},{"OBJECT_NAME":"STARLINK-37070","OBJECT_ID":"2026-055U","EPOCH":"2026-03-31T06:00:02.000160","MEAN_MOTION":15.90737127,"ECCENTRICITY":8.532e-5,"INCLINATION":53.1574,"RA_OF_ASC_NODE":229.2016,"ARG_OF_PERICENTER":71.8482,"MEAN_ANOMALY":231.0613,"EPHEMERIS_TYPE":0,"CLASSIFICATION_TYPE":"U","NORAD_CAT_ID":68280,"ELEMENT_SET_NO":999,"REV_AT_EPOCH":310,"BSTAR":-0.0046042187,"MEAN_MOTION_DOT":-0.01461084,"MEAN_MOTION_DDOT":0.00060250139},{"OBJECT_NAME":"STARLINK-37134","OBJECT_ID":"2026-055V","EPOCH":"2026-03-31T06:00:02.000160","MEAN_MOTION":15.90861722,"ECCENTRICITY":6.145e-5,"INCLINATION":53.1569,"RA_OF_ASC_NODE":229.1836,"ARG_OF_PERICENTER":66.8797,"MEAN_ANOMALY":244.6036,"EPHEMERIS_TYPE":0,"CLASSIFICATION_TYPE":"U","NORAD_CAT_ID":68281,"ELEMENT_SET_NO":999,"REV_AT_EPOCH":310,"BSTAR":-0.0045896984,"MEAN_MOTION_DOT":-0.01465712,"MEAN_MOTION_DDOT":0.00060671463},{"OBJECT_NAME":"STARLINK-37160","OBJECT_ID":"2026-055W","EPOCH":"2026-03-31T06:00:02.000160","MEAN_MOTION":15.90791263,"ECCENTRICITY":8.346e-5,"INCLINATION":53.1572,"RA_OF_ASC_NODE":229.1931,"ARG_OF_PERICENTER":68.6635,"MEAN_ANOMALY":238.6788,"EPHEMERIS_TYPE":0,"CLASSIFICATION_TYPE":"U","NORAD_CAT_ID":68282,"ELEMENT_SET_NO":999,"REV_AT_EPOCH":310,"BSTAR":-0.0045995007,"MEAN_MOTION_DOT":-0.01463601,"MEAN_MOTION_DDOT":0.00060471197},{"OBJECT_NAME":"STARLINK-37124","OBJECT_ID":"2026-055X","EPOCH":"2026-03-31T06:00:02.000160","MEAN_MOTION":15.90944028,"ECCENTRICITY":7.141e-5,"INCLINATION":53.1572,"RA_OF_ASC_NODE":229.1764,"ARG_OF_PERICENTER":69.0809,"MEAN_ANOMALY":246.1657,"EPHEMERIS_TYPE":0,"CLASSIFICATION_TYPE":"U","NORAD_CAT_ID":68283,"ELEMENT_SET_NO":999,"REV_AT_EPOCH":310,"BSTAR":-0.0045657937,"MEAN_MOTION_DOT":-0.01464266,"MEAN_MOTION_DDOT":0.00060609864},{"OBJECT_NAME":"STARLINK-37159","OBJECT_ID":"2026-055Y","EPOCH":"2026-03-31T06:00:02.000160","MEAN_MOTION":15.91017498,"ECCENTRICITY":7.186e-5,"INCLINATION":53.1573,"RA_OF_ASC_NODE":229.1672,"ARG_OF_PERICENTER":73.9725,"MEAN_ANOMALY":245.6406,"EPHEMERIS_TYPE":0,"CLASSIFICATION_TYPE":"U","NORAD_CAT_ID":68284,"ELEMENT_SET_NO":999,"REV_AT_EPOCH":310,"BSTAR":-0.0046087928,"MEAN_MOTION_DOT":-0.01483394,"MEAN_MOTION_DDOT":0.00062108579},{"OBJECT_NAME":"STARLINK-36725","OBJECT_ID":"2026-055Z","EPOCH":"2026-03-31T06:00:02.000160","MEAN_MOTION":15.9111774,"ECCENTRICITY":6.774e-5,"INCLINATION":53.1568,"RA_OF_ASC_NODE":229.1588,"ARG_OF_PERICENTER":68.3255,"MEAN_ANOMALY":255.0149,"EPHEMERIS_TYPE":0,"CLASSIFICATION_TYPE":"U","NORAD_CAT_ID":68285,"ELEMENT_SET_NO":999,"REV_AT_EPOCH":310,"BSTAR":-0.0046756269,"MEAN_MOTION_DOT":-0.01512297,"MEAN_MOTION_DDOT":0.00064401427},{"OBJECT_NAME":"STARLINK-36998","OBJECT_ID":"2026-055AA","EPOCH":"2026-03-31T06:00:02.000160","MEAN_MOTION":15.91300034,"ECCENTRICITY":6.685e-5,"INCLINATION":53.1578,"RA_OF_ASC_NODE":229.1423,"ARG_OF_PERICENTER":65.7567,"MEAN_ANOMALY":266.3659,"EPHEMERIS_TYPE":0,"CLASSIFICATION_TYPE":"U","NORAD_CAT_ID":68286,"ELEMENT_SET_NO":999,"REV_AT_EPOCH":310,"BSTAR":-0.0052081818,"MEAN_MOTION_DOT":-0.01697834,"MEAN_MOTION_DDOT":0.00079770878},{"OBJECT_NAME":"STARLINK-37165","OBJECT_ID":"2026-055AB","EPOCH":"2026-03-31T06:00:02.000160","MEAN_MOTION":15.91365651,"ECCENTRICITY":6.954e-5,"INCLINATION":53.1574,"RA_OF_ASC_NODE":229.132,"ARG_OF_PERICENTER":75.1588,"MEAN_ANOMALY":261.1421,"EPHEMERIS_TYPE":0,"CLASSIFICATION_TYPE":"U","NORAD_CAT_ID":68287,"ELEMENT_SET_NO":999,"REV_AT_EPOCH":310,"BSTAR":-0.0053249675,"MEAN_MOTION_DOT":-0.01741192,"MEAN_MOTION_DDOT":0.00083615492},{"OBJECT_NAME":"STARLINK-37016","OBJECT_ID":"2026-055AC","EPOCH":"2026-03-31T06:00:02.000160","MEAN_MOTION":15.91217344,"ECCENTRICITY":7.181e-5,"INCLINATION":53.1571,"RA_OF_ASC_NODE":229.1506,"ARG_OF_PERICENTER":65.0731,"MEAN_ANOMALY":262.4607,"EPHEMERIS_TYPE":0,"CLASSIFICATION_TYPE":"U","NORAD_CAT_ID":68288,"ELEMENT_SET_NO":999,"REV_AT_EPOCH":310,"BSTAR":-0.0048966151,"MEAN_MOTION_DOT":-0.01590866,"MEAN_MOTION_DDOT":0.00070728668}]
